[
    {
        "Altitude(m)": 560905.5698734819,
        "Argument of Periapsis(deg)": 0.0,
        "Eccentricity": 0.0,
        "Inclination(deg)": 53.0,
        "Latitude(deg)": -25.776370914242804,
        "Longitude(deg)": -88.75194491026016,
        "Mean Anomaly(deg)": -147.2727,
        "RAAN(deg)": 170.00000000000003,
        "Satellite Name": "Starlink Shell 1 761",
        "Satellite Number": 761,
        "Semi-Major Axis(m)": 6931778.249405717,
        "Time(s)": 0
    },
    {
        "Altitude(m)": 561076.8491709452,
        "Argument of Periapsis(deg)": 0.00034857847951123687,
        "Eccentricity": 0.0,
        "Inclination(deg)": 53.0,
        "Latitude(deg)": -26.243811440553056,
        "Longitude(deg)": -88.32823505951637,
        "Mean Anomaly(deg)": -146.6458687964433,
        "RAAN(deg)": 169.99948122992254,
        "Satellite Name": "Starlink Shell 1 761",
        "Satellite Number": 761,
        "Semi-Major Axis(m)": 6931778.249405717,
        "Time(s)": 10
    },
    {
        "Altitude(m)": 561248.8172024256,
        "Argument of Periapsis(deg)": 0.0006971569590224737,
        "Eccentricity": 0.0,
        "Inclination(deg)": 53.0,
        "Latitude(deg)": -26.709690866881996,
        "Longitude(deg)": -87.90081366788928,
        "Mean Anomaly(deg)": -146.01903759288652,
        "RAAN(deg)": 169.99896245984507,
        "Satellite Name": "Starlink Shell 1 761",
        "Satellite Number": 761,
        "Semi-Major Axis(m)": 6931778.249405717,
        "Time(s)": 20
    },
    {
        "Altitude(m)": 561421.4109238975,
        "Argument of Periapsis(deg)": 0.0010457354385337105,
        "Eccentricity": 0.0,
        "Inclination(deg)": 53.0,
        "Latitude(deg)": -27.1739656003538,
        "Longitude(deg)": -87.46958652665826,
        "Mean Anomaly(deg)": -145.39220638932986,
        "RAAN(deg)": 169.99844368976758,
        "Satellite Name": "Starlink Shell 1 761",
        "Satellite Number": 761,
        "Semi-Major Axis(m)": 6931778.249405717,
        "Time(s)": 30
    },
    {
        "Altitude(m)": 561594.5668643339,
        "Argument of Periapsis(deg)": 0.0013943139180449475,
        "Eccentricity": 0.0,
        "Inclination(deg)": 53.0,
        "Latitude(deg)": -27.636591112219495,
        "Longitude(deg)": -87.03445763357456,
        "Mean Anomaly(deg)": -144.7653751857731,
        "RAAN(deg)": 169.99792491969012,
        "Satellite Name": "Starlink Shell 1 761",
        "Satellite Number": 761,
        "Semi-Major Axis(m)": 6931778.249405717,
        "Time(s)": 40
    },
    {
        "Altitude(m)": 561768.2211541954,
        "Argument of Periapsis(deg)": 0.0017428923975561844,
        "Eccentricity": 0.0,
        "Inclination(deg)": 53.0,
        "Latitude(deg)": -28.097521909460202,
        "Longitude(deg)": -86.59533019526425,
        "Mean Anomaly(deg)": -144.13854398221642,
        "RAAN(deg)": 169.99740614961263,
        "Satellite Name": "Starlink Shell 1 761",
        "Satellite Number": 761,
        "Semi-Major Axis(m)": 6931778.249405717,
        "Time(s)": 50
    },
    {
        "Altitude(m)": 561942.3095540681,
        "Argument of Periapsis(deg)": 0.002091470877067421,
        "Eccentricity": 0.0,
        "Inclination(deg)": 53.0,
        "Latitude(deg)": -28.55671150590781,
        "Longitude(deg)": -86.15210611919485,
        "Mean Anomaly(deg)": -143.5117127786597,
        "RAAN(deg)": 169.9968873795352,
        "Satellite Name": "Starlink Shell 1 761",
        "Satellite Number": 761,
        "Semi-Major Axis(m)": 6931778.249405717,
        "Time(s)": 60
    },
    {
        "Altitude(m)": 562116.7674834972,
        "Argument of Periapsis(deg)": 0.0024400493565786582,
        "Eccentricity": 0.0,
        "Inclination(deg)": 53.0,
        "Latitude(deg)": -29.01411239289425,
        "Longitude(deg)": -85.70468550830225,
        "Mean Anomaly(deg)": -142.88488157510298,
        "RAAN(deg)": 169.9963686094577,
        "Satellite Name": "Starlink Shell 1 761",
        "Satellite Number": 761,
        "Semi-Major Axis(m)": 6931778.249405717,
        "Time(s)": 70
    },
    {
        "Altitude(m)": 562291.5300499502,
        "Argument of Periapsis(deg)": 0.002788627836089895,
        "Eccentricity": 0.0,
        "Inclination(deg)": 53.0,
        "Latitude(deg)": -29.469676009448314,
        "Longitude(deg)": -85.2529676713852,
        "Mean Anomaly(deg)": -142.25805037154623,
        "RAAN(deg)": 169.99584983938024,
        "Satellite Name": "Starlink Shell 1 761",
        "Satellite Number": 761,
        "Semi-Major Axis(m)": 6931778.249405717,
        "Time(s)": 80
    },
    {
        "Altitude(m)": 562466.5320779269,
        "Argument of Periapsis(deg)": 0.0031372063156011316,
        "Eccentricity": 0.0,
        "Inclination(deg)": 53.0,
        "Latitude(deg)": -29.923352712061686,
        "Longitude(deg)": -84.79685062376748,
        "Mean Anomaly(deg)": -141.63121916798954,
        "RAAN(deg)": 169.99533106930275,
        "Satellite Name": "Starlink Shell 1 761",
        "Satellite Number": 761,
        "Semi-Major Axis(m)": 6931778.249405717,
        "Time(s)": 90
    },
    {
        "Altitude(m)": 562641.7081381872,
        "Argument of Periapsis(deg)": 0.0034857847951123688,
        "Eccentricity": 0.0,
        "Inclination(deg)": 53.0,
        "Latitude(deg)": -30.375091744047666,
        "Longitude(deg)": -84.33623059136823,
        "Mean Anomaly(deg)": -141.00438796443285,
        "RAAN(deg)": 169.9948122992253,
        "Satellite Name": "Starlink Shell 1 761",
        "Satellite Number": 761,
        "Semi-Major Axis(m)": 6931778.249405717,
        "Time(s)": 100
    },
    {
        "Altitude(m)": 562816.9925770988,
        "Argument of Periapsis(deg)": 0.003834363274623606,
        "Eccentricity": 0.0,
        "Inclination(deg)": 53.0,
        "Latitude(deg)": -30.824841204522514,
        "Longitude(deg)": -83.8710030313371,
        "Mean Anomaly(deg)": -140.37755676087613,
        "RAAN(deg)": 169.9942935291478,
        "Satellite Name": "Starlink Shell 1 761",
        "Satellite Number": 761,
        "Semi-Major Axis(m)": 6931778.249405717,
        "Time(s)": 110
    },
    {
        "Altitude(m)": 562992.3195460705,
        "Argument of Periapsis(deg)": 0.004182941754134842,
        "Eccentricity": 0.0,
        "Inclination(deg)": 53.0,
        "Latitude(deg)": -31.27254801704287,
        "Longitude(deg)": -83.4010621438027,
        "Mean Anomaly(deg)": -139.75072555731944,
        "RAAN(deg)": 169.99377475907036,
        "Satellite Name": "Starlink Shell 1 761",
        "Satellite Number": 761,
        "Semi-Major Axis(m)": 6931778.249405717,
        "Time(s)": 120
    },
    {
        "Altitude(m)": 563167.6230310587,
        "Argument of Periapsis(deg)": 0.004531520233646079,
        "Eccentricity": 0.0,
        "Inclination(deg)": 53.0,
        "Latitude(deg)": -31.718157897936525,
        "Longitude(deg)": -82.92630038792795,
        "Mean Anomaly(deg)": -139.12389435376267,
        "RAAN(deg)": 169.99325598899287,
        "Satellite Name": "Starlink Shell 1 761",
        "Satellite Number": 761,
        "Semi-Major Axis(m)": 6931778.249405717,
        "Time(s)": 130
    },
    {
        "Altitude(m)": 563342.8368821655,
        "Argument of Periapsis(deg)": 0.0048800987131573164,
        "Eccentricity": 0.0,
        "Inclination(deg)": 53.0,
        "Latitude(deg)": -32.16161532437092,
        "Longitude(deg)": -82.44660951548036,
        "Mean Anomaly(deg)": -138.497063150206,
        "RAAN(deg)": 169.99273721891538,
        "Satellite Name": "Starlink Shell 1 761",
        "Satellite Number": 761,
        "Semi-Major Axis(m)": 6931778.249405717,
        "Time(s)": 140
    },
    {
        "Altitude(m)": 563517.8948432595,
        "Argument of Periapsis(deg)": 0.005228677192668553,
        "Eccentricity": 0.0,
        "Inclination(deg)": 53.0,
        "Latitude(deg)": -32.60286350220801,
        "Longitude(deg)": -81.96188009652192,
        "Mean Anomaly(deg)": -137.87023194664926,
        "RAAN(deg)": 169.99221844883792,
        "Satellite Name": "Starlink Shell 1 761",
        "Satellite Number": 761,
        "Semi-Major Axis(m)": 6931778.249405717,
        "Time(s)": 150
    },
    {
        "Altitude(m)": 563692.7305816588,
        "Argument of Periapsis(deg)": 0.00557725567217979,
        "Eccentricity": 0.0,
        "Inclination(deg)": 53.0,
        "Latitude(deg)": -33.04184433369973,
        "Longitude(deg)": -81.47200105046787,
        "Mean Anomaly(deg)": -137.24340074309256,
        "RAAN(deg)": 169.99169967876045,
        "Satellite Name": "Starlink Shell 1 761",
        "Satellite Number": 761,
        "Semi-Major Axis(m)": 6931778.249405717,
        "Time(s)": 160
    },
    {
        "Altitude(m)": 563867.277717812,
        "Argument of Periapsis(deg)": 0.0059258341516910265,
        "Eccentricity": 0.0,
        "Inclination(deg)": 53.0,
        "Latitude(deg)": -33.47849838508758,
        "Longitude(deg)": -80.9768606957793,
        "Mean Anomaly(deg)": -136.61656953953582,
        "RAAN(deg)": 169.99118090868296,
        "Satellite Name": "Starlink Shell 1 761",
        "Satellite Number": 761,
        "Semi-Major Axis(m)": 6931778.249405717,
        "Time(s)": 170
    },
    {
        "Altitude(m)": 564041.4698550255,
        "Argument of Periapsis(deg)": 0.006274412631202263,
        "Eccentricity": 0.0,
        "Inclination(deg)": 53.0,
        "Latitude(deg)": -33.91276485417194,
        "Longitude(deg)": -80.47634629295473,
        "Mean Anomaly(deg)": -135.98973833597913,
        "RAAN(deg)": 169.9906621386055,
        "Satellite Name": "Starlink Shell 1 761",
        "Satellite Number": 761,
        "Semi-Major Axis(m)": 6931778.249405717,
        "Time(s)": 180
    }
]